0 COSMOS 2251 DEB
1 34053U 93036JQ  13281.15720273  .00000309  00000-0  32052-3 0  1896
2 34053 073.8481 180.6377 0432906 348.6242 164.1797 13.45043927228323
0 COSMOS 2251 DEB
1 34053U 93036JQ  13282.84960818  .00000296  00000-0  30808-3 0  1908
2 34053 073.8480 177.9300 0432907 345.6457 079.0657 13.45046284228556
0 COSMOS 2251 DEB
1 34053U 93036JQ  13286.14367080  .00000342  00000-0  35298-3 0  1929
2 34053 073.8476 172.6593 0432907 339.8585 189.4479 13.45049063228998
0 COSMOS 2251 DEB
1 34053U 93036JQ  13287.75560626  .00000409  00000-0  41696-3 0  1932
2 34053 073.8473 170.0804 0432895 337.0208 074.7150 13.45050908229218
0 COSMOS 2251 DEB
1 34053U 93036JQ  13289.03231498  .00000396  00000-0  40448-3 0  1947
2 34053 073.8470 168.0376 0432880 334.7747 136.7638 13.45052505229385
0 COSMOS 2251 DEB
1 34053U 93036JQ  13290.07484049  .00000376  00000-0  38532-3 0  1955
2 34053 073.8468 166.3694 0432891 332.9356 144.8648 13.45053040229526
0 COSMOS 2251 DEB
1 34053U 93036JQ  13291.11705308  .00000349  00000-0  35959-3 0  1966
2 34053 073.8467 164.7016 0432885 331.1020 151.4510 13.45054034229668
0 COSMOS 2251 DEB
1 34053U 93036JQ  13292.66507454  .00000356  00000-0  36668-3 0  1976
2 34053 073.8465 162.2247 0432859 328.3761 087.2635 13.45054965229876
0 COSMOS 2251 DEB
1 34053U 93036JQ  13293.78328833  .00000388  00000-0  39804-3 0  1983
2 34053 073.8467 160.4354 0432848 326.4088 101.8720 13.45055911230025
0 COSMOS 2251 DEB
1 34053U 93036JQ  13295.06563400  .00000378  00000-0  38774-3 0  1992
2 34053 073.8466 158.3835 0432813 324.1485 191.2434 13.45056634230198
